{
  "type": "FeatureCollection",
  "features": [
    {
      "type": "Feature",
      "properties": {
        "norad_id": 66433,
        "name": "STARLINK-35457",
        "group": "last-30-days",
        "lat": 24.60227311478303,
        "lon": -148.64373102235942,
        "alt_km": 440.7608662092043,
        "timestamp": "2025-12-10T11:33:52.170921+00:00",
        "meta_object_name": "STARLINK-35457",
        "meta_object_id": "2025-259M",
        "meta_epoch": "2025-12-10T04:00:01.998720",
        "meta_mean_motion": 15.4058971,
        "meta_eccentricity": 0.000128,
        "meta_inclination": 43.0002,
        "meta_ra_of_asc_node": 62.603,
        "meta_arg_of_pericenter": 265.0739,
        "meta_mean_anomaly": 287.1818,
        "meta_ephemeris_type": 0,
        "meta_classification_type": "U",
        "meta_norad_cat_id": 66433,
        "meta_element_set_no": 999,
        "meta_rev_at_epoch": 586,
        "meta_bstar": 0.002574,
        "meta_mean_motion_dot": 0.00108359,
        "meta_mean_motion_ddot": 0,
        "tle_line1": "1 66433U 25259M   25344.16668980  .00108359  00000+0  25740-2 0  9992",
        "tle_line2": "2 66433  43.0002  62.6030 0001280 265.0739 287.1818 15.40589710  5867"
      },
      "geometry": {
        "type": "Point",
        "coordinates": [
          -148.64373102235942,
          24.60227311478303
        ]
      }
    },
    {
      "type": "Feature",
      "properties": {
        "norad_id": 66434,
        "name": "STARLINK-35389",
        "group": "last-30-days",
        "lat": 16.80282286397029,
        "lon": -138.15303412858202,
        "alt_km": 441.7838832798798,
        "timestamp": "2025-12-10T11:33:52.170931+00:00",
        "meta_object_name": "STARLINK-35389",
        "meta_object_id": "2025-259N",
        "meta_epoch": "2025-12-10T04:00:01.998720",
        "meta_mean_motion": 15.40687811,
        "meta_eccentricity": 0.0001095,
        "meta_inclination": 42.9998,
        "meta_ra_of_asc_node": 62.572,
        "meta_arg_of_pericenter": 274.7284,
        "meta_mean_anomaly": 289.9845,
        "meta_ephemeris_type": 0,
        "meta_classification_type": "U",
        "meta_norad_cat_id": 66434,
        "meta_element_set_no": 999,
        "meta_rev_at_epoch": 586,
        "meta_bstar": 0.00040588,
        "meta_mean_motion_dot": 0.00016681,
        "meta_mean_motion_ddot": 0,
        "tle_line1": "1 66434U 25259N   25344.16668980  .00016681  00000+0  40588-3 0  9997",
        "tle_line2": "2 66434  42.9998  62.5720 0001095 274.7284 289.9845 15.40687811  5862"
      },
      "geometry": {
        "type": "Point",
        "coordinates": [
          -138.15303412858202,
          16.80282286397029
        ]
      }
    },
    {
      "type": "Feature",
      "properties": {
        "norad_id": 66435,
        "name": "STARLINK-35502",
        "group": "last-30-days",
        "lat": 8.640144900265105,
        "lon": -128.6592902867824,
        "alt_km": 443.08892693942835,
        "timestamp": "2025-12-10T11:33:52.170941+00:00",
        "meta_object_name": "STARLINK-35502",
        "meta_object_id": "2025-259P",
        "meta_epoch": "2025-12-10T04:00:01.998720",
        "meta_mean_motion": 15.40610519,
        "meta_eccentricity": 0.0001122,
        "meta_inclination": 42.9999,
        "meta_ra_of_asc_node": 62.542,
        "meta_arg_of_pericenter": 283.419,
        "meta_mean_anomaly": 293.7117,
        "meta_ephemeris_type": 0,
        "meta_classification_type": "U",
        "meta_norad_cat_id": 66435,
        "meta_element_set_no": 999,
        "meta_rev_at_epoch": 586,
        "meta_bstar": 0.0019474,
        "meta_mean_motion_dot": 0.00081674,
        "meta_mean_motion_ddot": 0,
        "tle_line1": "1 66435U 25259P   25344.16668980  .00081674  00000+0  19474-2 0  9991",
        "tle_line2": "2 66435  42.9999  62.5420 0001122 283.4190 293.7117 15.40610519  5861"
      },
      "geometry": {
        "type": "Point",
        "coordinates": [
          -128.6592902867824,
          8.640144900265105
        ]
      }
    },
    {
      "type": "Feature",
      "properties": {
        "norad_id": 66436,
        "name": "STARLINK-35501",
        "group": "last-30-days",
        "lat": -8.24468065408787,
        "lon": -110.39127334145586,
        "alt_km": 444.8080615184399,
        "timestamp": "2025-12-10T11:33:52.170952+00:00",
        "meta_object_name": "STARLINK-35501",
        "meta_object_id": "2025-259Q",
        "meta_epoch": "2025-12-10T04:00:01.998720",
        "meta_mean_motion": 15.40624945,
        "meta_eccentricity": 0.0001074,
        "meta_inclination": 43,
        "meta_ra_of_asc_node": 62.4797,
        "meta_arg_of_pericenter": 274.2869,
        "meta_mean_anomaly": 327.6967,
        "meta_ephemeris_type": 0,
        "meta_classification_type": "U",
        "meta_norad_cat_id": 66436,
        "meta_element_set_no": 999,
        "meta_rev_at_epoch": 586,
        "meta_bstar": 0.0020493,
        "meta_mean_motion_dot": 0.00086058,
        "meta_mean_motion_ddot": 0,
        "tle_line1": "1 66436U 25259Q   25344.16668980  .00086058  00000+0  20493-2 0  9996",
        "tle_line2": "2 66436  43.0000  62.4797 0001074 274.2869 327.6967 15.40624945  5868"
      },
      "geometry": {
        "type": "Point",
        "coordinates": [
          -110.39127334145586,
          -8.24468065408787
        ]
      }
    },
    {
      "type": "Feature",
      "properties": {
        "norad_id": 66437,
        "name": "STARLINK-35474",
        "group": "last-30-days",
        "lat": -16.46824220915716,
        "lon": -100.87154975939374,
        "alt_km": 445.43246140947394,
        "timestamp": "2025-12-10T11:33:52.170962+00:00",
        "meta_object_name": "STARLINK-35474",
        "meta_object_id": "2025-259R",
        "meta_epoch": "2025-12-10T04:00:01.998720",
        "meta_mean_motion": 15.4062224,
        "meta_eccentricity": 0.0001433,
        "meta_inclination": 43,
        "meta_ra_of_asc_node": 62.4495,
        "meta_arg_of_pericenter": 274.1069,
        "meta_mean_anomaly": 340.3155,
        "meta_ephemeris_type": 0,
        "meta_classification_type": "U",
        "meta_norad_cat_id": 66437,
        "meta_element_set_no": 999,
        "meta_rev_at_epoch": 586,
        "meta_bstar": 0.0021166,
        "meta_mean_motion_dot": 0.00088918,
        "meta_mean_motion_ddot": 0,
        "tle_line1": "1 66437U 25259R   25344.16668980  .00088918  00000+0  21166-2 0  9992",
        "tle_line2": "2 66437  43.0000  62.4495 0001433 274.1069 340.3155 15.40622240  5861"
      },
      "geometry": {
        "type": "Point",
        "coordinates": [
          -100.87154975939374,
          -16.46824220915716
        ]
      }
    },
    {
      "type": "Feature",
      "properties": {
        "norad_id": 66438,
        "name": "STARLINK-34681",
        "group": "last-30-days",
        "lat": -24.218108783281373,
        "lon": -90.53516043082466,
        "alt_km": 446.2488702293804,
        "timestamp": "2025-12-10T11:33:52.170975+00:00",
        "meta_object_name": "STARLINK-34681",
        "meta_object_id": "2025-259S",
        "meta_epoch": "2025-12-10T04:00:01.998720",
        "meta_mean_motion": 15.40632075,
        "meta_eccentricity": 0.0001259,
        "meta_inclination": 43.0001,
        "meta_ra_of_asc_node": 62.4201,
        "meta_arg_of_pericenter": 295.8516,
        "meta_mean_anomaly": 330.9904,
        "meta_ephemeris_type": 0,
        "meta_classification_type": "U",
        "meta_norad_cat_id": 66438,
        "meta_element_set_no": 999,
        "meta_rev_at_epoch": 575,
        "meta_bstar": 0.0019853,
        "meta_mean_motion_dot": 0.00083348,
        "meta_mean_motion_ddot": 0,
        "tle_line1": "1 66438U 25259S   25344.16668980  .00083348  00000+0  19853-2 0  9995",
        "tle_line2": "2 66438  43.0001  62.4201 0001259 295.8516 330.9904 15.40632075  5753"
      },
      "geometry": {
        "type": "Point",
        "coordinates": [
          -90.53516043082466,
          -24.218108783281373
        ]
      }
    },
    {
      "type": "Feature",
      "properties": {
        "norad_id": 66439,
        "name": "STARLINK-35327",
        "group": "last-30-days",
        "lat": 0.21445865701688405,
        "lon": -119.53305408209349,
        "alt_km": 443.71013664372094,
        "timestamp": "2025-12-10T11:33:52.170985+00:00",
        "meta_object_name": "STARLINK-35327",
        "meta_object_id": "2025-259T",
        "meta_epoch": "2025-12-10T04:00:01.998720",
        "meta_mean_motion": 15.40696737,
        "meta_eccentricity": 6.42e-05,
        "meta_inclination": 43,
        "meta_ra_of_asc_node": 62.5137,
        "meta_arg_of_pericenter": 262.799,
        "meta_mean_anomaly": 326.661,
        "meta_ephemeris_type": 0,
        "meta_classification_type": "U",
        "meta_norad_cat_id": 66439,
        "meta_element_set_no": 999,
        "meta_rev_at_epoch": 586,
        "meta_bstar": 0.00066297,
        "meta_mean_motion_dot": 0.00027487,
        "meta_mean_motion_ddot": 0,
        "tle_line1": "1 66439U 25259T   25344.16668980  .00027487  00000+0  66297-3 0  9993",
        "tle_line2": "2 66439  43.0000  62.5137 0000642 262.7990 326.6610 15.40696737  5869"
      },
      "geometry": {
        "type": "Point",
        "coordinates": [
          -119.53305408209349,
          0.21445865701688405
        ]
      }
    }
  ]
}